SatCatId,ObjectName,LaunchYear,OrbitalPeriod,LaunchMass,StatusCode,Status,UcsData,OrbitClass,LaunchSiteCountry,Owner,UseType,Purpose,LaunchVehicleClass,TLE1,TLE2
3615,ESSA 8 (TOS-F),1968,114.63,-1.0,-,Inactive,0,LEO,USA,USA,Unknown,Unknown,Delta,1 03615U 68114A   22353.11195188 -.00000032  00000+0  72382-4 0  9995,2 03615 101.5218 302.7142 0031596 291.2468  68.5234 12.56218392476329
3623,INTELSAT 3-F2,1968,1596.55,-1.0,-,Inactive,0,HEO,USA,INTELSAT,Unknown,Unknown,Delta,1 03623U 68116A   22352.63462642 -.00000086  00000+0  00000+0 0  9996,2 03623   7.3548 300.6151 0091098  63.4132 137.1144  0.90194362 71266
3669,ISIS 1,1969,127.48,-1.0,UNK,Inactive,0,LEO,USA,Canada,Unknown,Unknown,Delta,1 03669U 69009A   22353.10439520  .00000221  00000+0  16079-3 0  9997,2 03669  88.4174 285.0077 1710743 303.0015  41.7818 11.29611617215644
3673,OPS 2644,1969,113.97,-1.0,UNK,Inactive,0,LEO,USA,USA,Unknown,Unknown,Thorad,1 03673U 69010B   22352.95168576  .00000111  00000+0  57506-3 0  9994,2 03673  80.3923 144.6583 0025123 288.7748 199.8998 12.63476856482278
3674,INTELSAT 3-F3,1969,1695.49,-1.0,-,Inactive,0,HEO,USA,INTELSAT,Unknown,Unknown,Delta,1 03674U 69011A   22353.25319174 -.00000134  00000+0  00000+0 0  9991,2 03674  12.8067 310.6520 0178419 338.6197  84.8051  0.84931046 55865
3691,OPS 0757 (TACSAT),1969,1434.07,-1.0,-,Inactive,0,GEO,USA,USA,Unknown,Unknown,Titan,1 03691U 69013A   22353.31803909  .00000144  00000+0  00000+0 0  9993,2 03691   0.5121 309.6191 0019341 280.8214 347.1626  1.00414139101297
3764,ESSA 9 (TOS-G),1969,115.21,-1.0,-,Inactive,0,LEO,USA,USA,Unknown,Unknown,Delta,1 03764U 69016A   22353.40510684 -.00000023  00000+0  12854-3 0  9993,2 03764 101.4836  28.0561 0051296  71.0429 301.3560 12.49840635828449
3818,COSMOS 272,1969,109.27,-1.0,UNK,Inactive,0,LEO,Russia,Russia/USSR,Unknown,Unknown,Kosmos,1 03818U 69024A   22353.37735810  .00000231  00000+0  64194-3 0  9992,2 03818  73.9919  18.9988 0018142  95.9286 275.9125 13.17894129585776
3825,OV1-19,1969,150.58,-1.0,UNK,Inactive,0,MEO,USA,USA,Unknown,Unknown,Atlas,1 03825U 69025C   22353.36604095  .00000398  00000+0  21137-3 0  9994,2 03825 104.7199  30.2921 2690125 265.8846  63.3929  9.56283603863137
3890,NIMBUS 3,1969,107.26,-1.0,-,Inactive,0,LEO,USA,USA,Unknown,Unknown,Thorad,1 03890U 69037A   22353.30109861 -.00000030  00000+0  24231-4 0  9997,2 03890  99.8485 252.1390 0039154 197.8034 274.0202 13.42564284629565
3891,SECOR 13 (EGRS 13),1969,107.23,-1.0,UNK,Inactive,0,LEO,USA,USA,Unknown,Unknown,Thorad,1 03891U 69037B   22352.94890964 -.00000024  00000+0  34058-4 0  9999,2 03891  99.8142 247.6581 0040011 135.0922 237.0063 13.42892278630452
3947,INTELSAT 3-F4,1969,1599.21,-1.0,-,Inactive,0,HEO,USA,INTELSAT,Unknown,Unknown,Delta,1 03947U 69045A   22352.09935366 -.00000079  00000+0  00000+0 0  9997,2 03947   7.2484 295.3409 0023460  53.4043 153.1453  0.90044539 54461
3954,OPS 6909 (VELA 9),1969,6696.73,-1.0,UNK,Inactive,0,HEO,USA,USA,Unknown,Unknown,Titan,1 03954U 69046D   22345.75211593  .00000557  00000+0  00000+0 0  9990,2 03954  71.5110  65.5460 7850444 136.6298   2.0630  0.21503040 10255
4047,OPS 1127 (DMSP 4B F3),1969,100.78,-1.0,-,Inactive,0,LEO,USA,USA,Unknown,Unknown,Thor,1 04047U 69062A   22353.33321605  .00000132  00000+0  68971-4 0  9996,2 04047  98.5968 217.8923 0045301  48.5111 311.9945 14.28802839779096
4068,ATS 5,1969,1447.33,-1.0,-,Inactive,0,GEO,USA,USA,Unknown,Unknown,Atlas,1 04068U 69069A   22353.33935471 -.00000266  00000+0  00000+0 0  9991,2 04068   3.2467 278.3551 0002981 331.5566  82.4333  0.99492793 33632
4070,COSMOS 292,1969,99.05,-1.0,UNK,Inactive,0,LEO,Russia,Russia/USSR,Unknown,Unknown,Kosmos,1 04070U 69070A   22353.02841900  .00000247  00000+0  65502-4 0  9996,2 04070  74.0468 197.8520 0009266 124.0128 236.1916 14.53829214820552
4132,SOICAL [CONE],1969,101.0,-1.0,UNK,Inactive,0,LEO,USA,USA,Unknown,Unknown,Unknown,1 04132U 69082K   22353.02957578  .00001178  00000+0  51960-3 0  9993,2 04132  69.9956 272.8094 0004816  93.1703 266.9970 14.25751959738601
4138,COSMOS 304,1969,99.58,-1.0,UNK,Inactive,0,LEO,Russia,Russia/USSR,Unknown,Unknown,Kosmos,1 04138U 69091A   22353.27975608  .00000046  00000+0  20386-4 0  9992,2 04138  74.0399  92.5919 0012007  50.6178 309.6041 14.46079456803271
4166,SOICAL [CYLINDER],1969,93.86,-1.0,UNK,Inactive,0,LEO,USA,USA,Unknown,Unknown,Unknown,1 04166U 69082J   22353.23675240  .00147109  00000+0  43264-2 0  9998,2 04166  69.9528 181.8448 0001937 148.0847 212.0448 15.34370537789265
4168,TEMPSAT 2,1969,103.18,-1.0,UNK,Inactive,0,LEO,USA,USA,Unknown,Unknown,Thorad,1 04168U 69082H   22353.29417502  .00000054  00000+0  78283-4 0  9999,2 04168  70.0148 302.9213 0020748 340.9153  19.1173 13.95627953710041
4221,AZUR (GRS A),1969,99.87,-1.0,UNK,Inactive,0,LEO,USA,Germany,Unknown,Unknown,Scout,1 04221U 69097A   22353.33406435  .00015803  00000+0  64692-3 0  9999,2 04221 102.6899  91.6896 0560358  89.9221 276.6129 14.41899727536440
4237,OPS 7613 (P/L 4),1969,103.18,-1.0,UNK,Inactive,0,LEO,USA,USA,Unknown,Unknown,Unknown,1 04237U 69082E   22353.01929604  .00000040  00000+0  67812-4 0  9998,2 04237  70.0153 309.2514 0021120 345.2541  80.8576 13.95609652708227
4247,OPS 7613 (P/L 5),1969,103.18,-1.0,UNK,Inactive,0,LEO,USA,USA,Unknown,Unknown,Unknown,1 04247U 69082F   22353.27269603  .00000036  00000+0  64884-4 0  9994,2 04247  70.0151 307.2788 0021152 343.6677  16.3744 13.95598575708361
4250,SKYNET 1A,1969,1436.04,-1.0,-,Inactive,0,GEO,USA,UK,Military,Unknown,Delta,1 04250U 69101A   22353.29389437 -.00000054  00000+0  00000+0 0  9996,2 04250   2.8550 282.6216 0022408 292.8198 232.3318  1.00275456121720
4254,COSMOS 312,1969,108.5,-1.0,UNK,Inactive,0,LEO,Russia,Russia/USSR,Unknown,Unknown,Kosmos,1 04254U 69103A   22353.39865765  .00000008  00000+0  62765-4 0  9995,2 04254  74.0202 226.2228 0022929 356.0971 176.7758 13.27145028570388
4256,OPS 7613 (P/L 1),1969,102.97,-1.0,UNK,Inactive,0,LEO,USA,USA,Unknown,Unknown,Unknown,1 04256U 69082B   22353.22718963  .00000112  00000+0  11540-3 0  9992,2 04256  70.0086 184.5490 0022217 292.0568  67.8180 13.98506471712023
4257,TIMATION 2,1969,103.15,-1.0,UNK,Inactive,0,LEO,USA,USA,Unknown,Unknown,Thorad,1 04257U 69082C   22353.32623873  .00000041  00000+0  68380-4 0  9995,2 04257  70.0154 297.9512 0021506 338.5291 134.2590 13.95964950708568
4259,OPS 7613 (P/L 3),1969,103.24,-1.0,UNK,Inactive,0,LEO,USA,USA,Unknown,Unknown,Unknown,1 04259U 69082D   22353.38399111  .00000027  00000+0  59154-4 0  9991,2 04259  70.0152 336.3899 0020468   1.1109 148.3059 13.94817662803750
4295,OPS 7613 (P/L 6),1969,103.21,-1.0,UNK,Inactive,0,LEO,USA,USA,Unknown,Unknown,Unknown,1 04295U 69082G   22353.01202062  .00000007  00000+0  43796-4 0  9992,2 04295  70.0127 313.4420 0020296   0.5322 359.5801 13.95254572707454
4297,INTELSAT 3-F6,1970,1452.27,-1.0,-,Inactive,0,GEO,USA,INTELSAT,Unknown,Unknown,Delta,1 04297U 70003A   22353.38729280 -.00000001  00000+0  00000+0 0  9996,2 04297   2.2665 277.7404 0010230  57.7999 161.3836  0.99154906164202
4320,ITOS 1 (TIROS M),1970,115.01,-1.0,-,Inactive,0,LEO,USA,USA,Unknown,Unknown,Delta,1 04320U 70008A   22352.75957137 -.00000049  00000+0 -35831-4 0  9990,2 04320 101.5655  51.4882 0028059 277.9491 190.1547 12.52075338614100
4321,OSCAR 5 (AO-5),1970,115.0,-1.0,-,Inactive,0,LEO,USA,Australia,Unknown,Unknown,Unknown,1 04321U 70008B   22353.37104671 -.00000032  00000+0  73384-4 0  9993,2 04321 101.4543  36.9367 0027533 236.6692 135.5604 12.52159511417769
4327,SERT 2,1970,106.0,-1.0,UNK,Inactive,0,LEO,USA,USA,Unknown,Unknown,Thorad,1 04327U 70009A   22352.97300677  .00000024  00000+0  88125-4 0  9998,2 04327  99.1297 349.0070 0004209 303.7543 110.6889 13.58536420620107
4331,OPS 0054 (DMSP 5A F1),1970,100.49,-1.0,-,Inactive,0,LEO,USA,USA,Unknown,Unknown,Thor,1 04331U 70012A   22353.25602357  .00000284  00000+0  11827-3 0  9991,2 04331  98.8592 108.7656 0059578 104.0770 256.7045 14.33006979754333
4353,NATO 2A,1970,1436.2,-1.0,-,Inactive,0,GEO,USA,NATO,Military,Unknown,Delta,1 04353U 70021A   22353.37653831 -.00000036  00000+0  00000+0 0  9994,2 04353   3.5936 288.3183 0002241 235.6188 311.0822  1.00264462112970
4362,NIMBUS 4,1970,107.09,-1.0,-,Inactive,0,LEO,USA,USA,Unknown,Unknown,Thorad,1 04362U 70025A   22353.30403699 -.00000022  00000+0  38714-4 0  9999,2 04362  99.9540 266.6505 0006971 224.2117 254.5745 13.44643707585363
4363,TOPO 1,1970,106.94,-1.0,UNK,Inactive,0,LEO,USA,USA,Unknown,Unknown,Thorad,1 04363U 70025B   22353.31213045 -.00000033  00000+0  19694-4 0  9993,2 04363  99.9185 261.8234 0001335 230.2536 251.1523 13.46610530589468
4368,OPS 7033 (VELA 11),1970,6698.43,-1.0,UNK,Inactive,0,HEO,USA,USA,Unknown,Unknown,Titan,1 04368U 70027B   22324.69546294  .00000770  00000+0  00000+0 0  9997,2 04368  86.5313  36.0141 6655316 112.0718   0.5449  0.21497587  9819
4369,COSMOS 332,1970,99.19,-1.0,UNK,Inactive,0,LEO,Russia,Russia/USSR,Unknown,Unknown,Kosmos,1 04369U 70028A   22352.88474358  .00000293  00000+0  79923-4 0  9997,2 04369  74.0352 150.9937 0006554 325.1657  34.9074 14.51723883782790
4376,INTELSAT 3-F7,1970,1436.39,-1.0,-,Inactive,0,GEO,USA,INTELSAT,Unknown,Unknown,Delta,1 04376U 70032A   22352.36978869 -.00000255  00000+0  00000+0 0  9993,2 04376   0.9580 260.4561 0001865  42.6112  56.9345  1.00251516 34554
4382,DFH 1,1970,110.01,-1.0,UNK,Inactive,0,LEO,PRC,China,Unknown,Unknown,Long March,1 04382U 70034A   22353.32323866  .00001237  00000+0  19766-3 0  9993,2 04382  68.4212 133.9646 1043334  45.1481 322.9676 13.08920601478357
4383,COSMOS 336,1970,115.42,-1.0,UNK,Inactive,0,LEO,Russia,Russia/USSR,Military,Unknown,Kosmos,1 04383U 70036A   22353.17904230 -.00000011  00000+0  30996-4 0  9998,2 04383  74.0285 242.4621 0015261 246.6168 228.9155 12.47631027397740
4384,COSMOS 337,1970,116.2,-1.0,UNK,Inactive,0,LEO,Russia,Russia/USSR,Military,Unknown,Kosmos,1 04384U 70036B   22353.25674560 -.00000015  00000+0  21552-5 0  9991,2 04384  74.0294 278.2200 0053140  21.7180 131.3239 12.39224974381669
